{"fetched_at":"2026-05-19T11:19:59Z","count":13473,"tles":[{"name":"STARLINK-36519","line1":"1 67449U 26008E   26138.80393039  .00009985  00000+0  37181-3 0  9994","line2":"2 67449  43.0011 169.3965 0001925 269.9544  90.1087 15.27586915 20293","category":"Starlink"},{"name":"IRIDIUM 33 DEB","line1":"1 35296U 97051PL  23178.22919663  .00014256  00000+0  27855-2 0  9992","line2":"2 35296  86.3144 358.5028 0006634 201.3310 158.7626 14.62813098746085","category":"Other"},{"name":"STARLINK-30950","line1":"1 58440U 23183D   26138.78723256 -.00001244  00000+0 -35718-4 0  9998","line2":"2 58440  42.9976 169.2522 0001001 274.9740  85.0997 15.27565521139754","category":"Starlink"},{"name":"UNKNOWN","line1":"1 87054U          26103.66208279  .00001189  00000+0  68367-3 0  9997","line2":"2 87054 100.0881   3.0605 0013927  14.6605 345.4964 14.11613906633528","category":"Other"},{"name":"STARLINK-37260","line1":"1 68510U 26068C   26139.16670139 -.00014417  00000+0 -41633-3 0  9994","line2":"2 68510  53.1591 159.0058 0001548  72.5594 353.7575 15.34401721  5912","category":"Starlink"},{"name":"STARLINK-2666","line1":"1 48666U 21044AE  26139.19623918  .00000175  00000+0  18410-4 0  9991","line2":"2 48666  53.1586 146.4286 0001395  89.5422 270.5739 15.29351656274604","category":"Starlink"},{"name":"STARLINK-2067","line1":"1 47674U 21012BG  23362.14926358  .00002215  00000+0  16749-3 0  9997","line2":"2 47674  53.0538  54.3526 0000886  79.0368 281.0720 15.06409653158782","category":"Starlink"},{"name":"MERIDIAN 6","line1":"1 38995U 12063A   26103.81232650  .00000432  00000+0  00000+0 0  9992","line2":"2 38995  64.1761   4.5596 7333552 228.7703  40.1584  2.00593975 98219","category":"Other"},{"name":"STARLINK-31453","line1":"1 59522U 24073M   26138.62682027  .00014847  00000+0  54783-3 0  9995","line2":"2 59522  43.0015 265.2756 0001756 261.6678  98.3974 15.27587136117077","category":"Starlink"},{"name":"STARLINK-5271","line1":"1 54194U 22141AP  26139.13753794 -.00002099  00000+0 -11387-3 0  9997","line2":"2 54194  53.2172  37.8303 0001299  95.1262 264.9879 15.08833037196633","category":"Starlink"},{"name":"STARLINK-6079","line1":"1 56120U 23046AD  26139.21890671 -.00004620  00000+0 -15849-3 0  9997","line2":"2 56120  43.0028 108.9374 0000979 274.4584  85.6156 15.27578821172988","category":"Starlink"},{"name":"STARLINK-3578","line1":"1 51868U 22022S   26139.18217198 -.00000615  00000+0 -20549-4 0  9991","line2":"2 51868  53.2167  52.6690 0001478  87.1755 272.9407 15.08832262233753","category":"Starlink"},{"name":"ANGOSAT 1","line1":"1 43087U 17086A   26104.45317928  .00000111  00000+0  00000+0 0  9997","line2":"2 43087   7.4217  68.0116 0018152 178.6668 164.9170  0.99377720 30090","category":"Other"},{"name":"FENGYUN 1C DEB","line1":"1 32207U 99025CVD 26100.72831579  .00000782  00000+0  25625-3 0  9999","line2":"2 32207  99.8721  82.5058 0084814 156.2707  19.6508 14.39925302660192","category":"Weather"},{"name":"STARLINK-30214","line1":"1 57411U 23102H   26138.27532091  .00000762  00000+0  37233-4 0  9991","line2":"2 57411  43.0052 215.4730 0001989 272.1626  87.8998 15.27564567156839","category":"Starlink"},{"name":"STARLINK-4558","line1":"1 53426U 22097AQ  26139.18264073  .00000161  00000+0  28175-4 0  9996","line2":"2 53426  53.2161 147.8192 0001212  84.5872 275.5258 15.08835372209425","category":"Starlink"},{"name":"HULIANWANG DIGUI-147","line1":"1 67523U 26013B   26139.20655505 -.00000119  00000+0  11739-4 0  9990","line2":"2 67523  50.0040  99.7188 0000821   0.2840 359.8032 13.29328402 16192","category":"Other"},{"name":"ANDESITE","line1":"1 45726U 20037D   26139.05982022  .00001542  00000+0  11161-3 0  9999","line2":"2 45726  97.7865 331.7401 0007437 268.1311  91.9063 15.05528592321286","category":"Other"},{"name":"IRIDIUM 33 DEB","line1":"1 35618U 97051QQ  26103.27769641  .00000951  00000+0  22513-3 0  9999","line2":"2 35618  86.3354 300.3419 0027339 333.7153  26.2663 14.52847621671585","category":"Other"},{"name":"2023-189C","line1":"1 58504U 23189C   24003.59663255  .00024408  00000+0  10159-2 0  9990","line2":"2 58504  97.4639  11.1360 0017897 184.8375 175.2692 15.23597583  4501","category":"Other"},{"name":"UNKNOWN","line1":"1 87934U          26099.55718440  .00000087  00000+0  77533-4 0  9994","line2":"2 87934  82.9384 212.6169 0031582  70.3596 302.1194 13.73129753620484","category":"Other"},{"name":"KUIPER-00189","line1":"1 68574U 26072B   26139.16670139 -.00037574  00000+0 -52761-2 0  9991","line2":"2 68574  51.8991 325.8606 0000942 199.4165 203.2380 14.77047920  5717","category":"Other"},{"name":"ONEWEB-0225","line1":"1 48799U 21045AJ  26139.08073191 -.00000055  00000+0 -17930-3 0  9993","line2":"2 48799  87.8980 264.9982 0001607  82.5920 277.5393 13.15547079240597","category":"Other"},{"name":"STARLINK-2193","line1":"1 47770U 21017BA  26138.46357021  .00000344  00000+0  22844-4 0  9998","line2":"2 47770  53.1581 239.4270 0001310  90.7541 269.3610 15.31694644288556","category":"Starlink"},{"name":"O3B FM4","line1":"1 39189U 13031B   26138.37569430 -.00000017  00000+0  00000+0 0  9992","line2":"2 39189   0.0463 345.8675 0005116  65.6827 308.4972  5.00115181235555","category":"Other"},{"name":"STARLINK-31704","line1":"1 59586U 24076Y   26138.10164193  .00045433  00000+0  10076-2 0  9991","line2":"2 59586  42.9929 286.7490 0018453 321.7185  38.2361 15.42835611117686","category":"Starlink"},{"name":"ONEWEB-0545","line1":"1 54647U 22166F   26139.04699095 -.00000035  00000+0 -11584-3 0  9997","line2":"2 54647  87.9250 249.7802 0002487  98.1891 261.9525 13.21825183167657","category":"Other"},{"name":"STARLINK-3650","line1":"1 51982U 22025AC  23362.49587393  .00003360  00000+0  22895-3 0  9990","line2":"2 51982  53.2194  40.3067 0002487 111.0624 249.0634 15.08872392101057","category":"Starlink"},{"name":"O3B FM15","line1":"1 43231U 18024A   26138.90879632 -.00000019  00000+0  00000+0 0  9991","line2":"2 43231   0.0513   3.7813 0002630  52.1205 304.1242  5.00115707149569","category":"Other"},{"name":"FENGYUN 1C DEB","line1":"1 32351U 99025CYU 23178.51513108  .00094690  00000+0  14404-2 0  9996","line2":"2 32351  98.9904  25.1700 0057100 159.0898 201.2704 15.52297876869587","category":"Weather"},{"name":"STARLINK-30155","line1":"1 57475U 23107U   26139.12727698 -.00000268  00000+0 -20790-6 0  9995","line2":"2 57475  43.0034 297.9635 0001508 258.9316 101.1366 15.27579345155921","category":"Starlink"},{"name":"STARLINK-4455","line1":"1 53500U 22099AM  26139.16670139  .00105073  00000+0  28369-2 0  9994","line2":"2 53500  97.6060 261.9936 0001455  63.7483 166.9713 15.37350198  5713","category":"Starlink"},{"name":"DLR-TUBSAT","line1":"1 25757U 99029B   26139.22166227  .00000017  00000+0  16127-4 0  9992","line2":"2 25757  98.6693 133.7741 0015396  79.3241 280.9687 14.52418324429048","category":"Other"},{"name":"CZ-2C DEB","line1":"1 67587U 26009D   26044.19075132  .00035018  00000+0  16658-2 0  9998","line2":"2 67587  97.6726 119.0708 0106643 127.4511 233.6481 15.14105499  4380","category":"Other"},{"name":"SHIYAN-6 02 (SY-6 02)","line1":"1 45859U 20043A   26138.77916704  .00000144  00000+0  36335-4 0  9993","line2":"2 45859  98.1853 150.4035 0127948 318.9840  40.1792 14.60915351312564","category":"Other"},{"name":"COSMOS 2251 DEB","line1":"1 35773U 93036ART 26104.72919980  .00001139  00000+0  22539-3 0  9991","line2":"2 35773  74.0051 104.7775 0048196 233.7827 125.8880 14.62857437886376","category":"Other"},{"name":"CZ-2F DEB","line1":"1 58575U 23195C   24013.47853537  .01603888  10758-2  75359-2 0  9990","line2":"2 58575  49.7672 111.0804 0066687 303.2190  56.2403 15.79267786  4645","category":"Other"},{"name":"STARLINK-5464","line1":"1 54758U 22175A   26139.08375578  .00000625  00000+0  57351-4 0  9997","line2":"2 54758  53.2170  83.3035 0001391  83.4543 276.6607 15.08823177190615","category":"Starlink"},{"name":"FENGYUN 1C DEB","line1":"1 30509U 99025AHX 26104.16889095  .00001775  00000+0  10085-2 0  9996","line2":"2 30509  98.4623 333.4726 0102219  75.3838  51.5079 14.08472878974453","category":"Weather"},{"name":"QIANFAN-111","line1":"1 68638U 26075C   26139.15909480 -.02110162  00000+0 -22459+1 0  9994","line2":"2 68638  88.9862 324.0156 0012009  85.5548 274.6991 13.78358863  5861","category":"Other"},{"name":"KSF1-B","line1":"1 48926U 21059AZ  23362.44930438  .00166322  00000+0  14147-2 0  9995","line2":"2 48926  97.5973 153.2445 0010206 285.6179  74.3955 15.69018208139705","category":"Other"},{"name":"STARLINK-2431","line1":"1 47839U 21018BE  26139.03061067  .00000138  00000+0  16227-4 0  9990","line2":"2 47839  53.1595 249.8370 0001396  80.2386 279.8773 15.31696819287874","category":"Starlink"},{"name":"STARLINK-31799","line1":"1 59652U 24082X   26139.16732852 -.00000435  00000+0 -62876-5 0  9995","line2":"2 59652  43.0020  91.1173 0000612 279.3735  80.7048 15.27580638115767","category":"Starlink"},{"name":"LIGHTCUBE","line1":"1 56314U 98067VF  23286.41787111  .09009232  12372-4  95711-3 0  9990","line2":"2 56314  51.6098  80.7140 0009186 296.8532  63.1554 16.36595299 27029","category":"Other"},{"name":"STARLINK-3698","line1":"1 52108U 22029W   26139.17940358 -.00000406  00000+0 -74213-5 0  9992","line2":"2 52108  53.2168 122.6787 0001229  75.5070 284.6059 15.08839297231422","category":"Starlink"},{"name":"FENGYUN 2H AKM","line1":"1 43497U 18050C   26104.12971359  .00000079  00000+0  00000+0 0  9995","line2":"2 43497   4.7055  77.3992 0089162 323.3739  36.1721  1.00083271 28667","category":"Weather"},{"name":"AAUSAT-II","line1":"1 32788U 08021F   25139.97047148  .08158600  26426-5  14044-2 0  9997","line2":"2 32788  97.5714 139.5734 0010482 221.9933 138.0559 16.32875487930171","category":"Other"},{"name":"STARLINK-30145","line1":"1 57496U 23113B   26138.84029635  .00000378  00000+0  23274-4 0  9997","line2":"2 57496  43.0040 339.9104 0001424 260.1137  99.9554 15.27570063154292","category":"Starlink"}]}